PANDORA
1 67395U 80229J   26129.59013889  .00000000  00000-0  37770-3 0    04
2 67395  97.8120 128.8482 0004503 253.0007 203.1478 14.88028499    09
